NORAD_CAT_ID,OBJECT_NAME,OBJECT_TYPE,EPOCH,MEAN_MOTION,ECCENTRICITY,INCLINATION,RA_OF_ASC_NODE,ARG_OF_PERICENTER,MEAN_ANOMALY,BSTAR,MEAN_MOTION_DOT,MEAN_MOTION_DDOT,TLE_LINE0,TLE_LINE1,TLE_LINE2,SEMIMAJOR_AXIS,PERIOD,APOGEE,PERIGEE,DECAYED
50158.0,STARLINK-3309,PAYLOAD,2023-08-24 17:48:22,15.0883693,0.0001308,53.2169,104.8494,83.9172,276.197,8.3675e-05,1.044e-05,0.0,0 STARLINK-3309,1 50158U 21125C   23236.74192489  .00001044  00000-0  83675-4 0  9992,2 50158  53.2169 104.8494 0001308  83.9172 276.1970 15.08836930 93286,6917.89,95.438,540.66,538.85,0.0
50158.0,STARLINK-3309,PAYLOAD,2023-08-25 09:42:13,15.08837992,0.0001341,53.216,101.8792,77.3854,282.7288,6.6182e-05,7.65e-06,0.0,0 STARLINK-3309,1 50158U 21125C   23237.40432552  .00000765  00000-0  66182-4 0  9997,2 50158  53.2160 101.8792 0001341  77.3854 282.7288 15.08837992 96531,6917.887,95.438,540.679,538.824,0.0
50158.0,STARLINK-3309,PAYLOAD,2023-08-25 19:14:32,15.0883932,0.00013,53.2161,100.0946,77.1818,282.932,2.6644e-05,1.36e-06,0.0,0 STARLINK-3309,1 50158U 21125C   23237.80176555  .00000136  00000-0  26644-4 0  9990,2 50158  53.2161 100.0946 0001300  77.1818 282.9320 15.08839320 93440,6917.882,95.438,540.647,538.848,0.0
50158.0,STARLINK-3309,PAYLOAD,2023-08-25 20:49:55,15.08841321,0.0001253,53.2168,99.7974,79.4971,280.6162,7.7017e-05,9.38e-06,0.0,0 STARLINK-3309,1 50158U 21125C   23237.86800726  .00000938  00000-0  77017-4 0  9990,2 50158  53.2168  99.7974 0001253  79.4971 280.6162 15.08841321 96608,6917.876,95.437,540.608,538.875,0.0
50158.0,STARLINK-3309,PAYLOAD,2023-08-26 14:19:10,15.08856033,0.0001235,53.2166,96.5255,77.4472,282.6658,-0.00012935,-2.347e-05,0.0,0 STARLINK-3309,1 50158U 21125C   23238.59664505 -.00002347  00000-0 -12935-3 0  9999,2 50158  53.2166  96.5255 0001235  77.4472 282.6658 15.08856033 96717,6917.831,95.437,540.551,538.842,0.0
50158.0,STARLINK-3309,PAYLOAD,2023-08-26 20:40:44,15.0876044,0.0001528,53.2167,95.3362,103.3705,256.7457,0.0013416,0.00021082,0.0,0 STARLINK-3309,1 50158U 21125C   23238.86162871  .00021082  00000-0  13416-2 0  9997,2 50158  53.2167  95.3362 0001528 103.3705 256.7457 15.08760440 96756,6918.124,95.443,541.046,538.931,0.0
50158.0,STARLINK-3309,PAYLOAD,2023-08-26 23:51:28,15.08858028,0.0001226,53.2167,94.7408,78.9981,281.1149,-5.4907e-05,-1.162e-05,0.0,0 STARLINK-3309,1 50158U 21125C   23238.99407850 -.00001162  00000-0 -54907-4 0  9991,2 50158  53.2167  94.7408 0001226  78.9981 281.1149 15.08858028 93621,6917.825,95.436,540.538,538.842,0.0
50158.0,STARLINK-3309,PAYLOAD,2023-08-27 17:20:43,15.08842345,0.0001245,53.2169,91.4695,87.0784,273.0351,0.00010367,1.363e-05,0.0,0 STARLINK-3309,1 50158U 21125C   23239.72272521  .00001363  00000-0  10367-3 0  9990,2 50158  53.2169  91.4695 0001245  87.0784 273.0351 15.08842345 93730,6917.873,95.437,540.599,538.877,0.0
50158.0,STARLINK-3309,PAYLOAD,2023-08-27 20:31:29,15.08845223,0.0001206,53.2168,90.8746,90.1439,269.9691,0.00012398,1.686e-05,0.0,0 STARLINK-3309,1 50158U 21125C   23239.85520243  .00001686  00000-0  12398-3 0  9995,2 50158  53.2168  90.8746 0001206  90.1439 269.9691 15.08845223 96909,6917.864,95.437,540.564,538.895,0.0
50158.0,STARLINK-3309,PAYLOAD,2023-08-28 20:22:16,15.08853235,0.0001412,53.2176,86.4134,83.6783,276.437,0.00012305,1.672e-05,0.0,0 STARLINK-3309,1 50158U 21125C   23240.84879836  .00001672  00000-0  12305-3 0  9994,2 50158  53.2176  86.4134 0001412  83.6783 276.4370 15.08853235 97054,6917.84,95.437,540.682,538.728,0.0
50158.0,STARLINK-3309,PAYLOAD,2023-08-29 17:02:17,15.08837384,0.0001302,53.2169,82.5489,88.8383,271.2758,-7.1246e-06,-4.01e-06,0.0,0 STARLINK-3309,1 50158U 21125C   23241.70992828 -.00000401  00000-0 -71246-5 0  9999,2 50158  53.2169  82.5489 0001302  88.8383 271.2758 15.08837384 94032,6917.888,95.438,540.654,538.853,0.0
50158.0,STARLINK-3309,PAYLOAD,2023-08-29 18:37:40,15.08841627,0.0001155,53.2185,82.2491,99.7552,260.3571,-8.6625e-05,-1.666e-05,0.0,0 STARLINK-3309,1 50158U 21125C   23241.77616699 -.00001666  00000-0 -86625-4 0  9995,2 50158  53.2185  82.2491 0001155  99.7552 260.3571 15.08841627 97192,6917.875,95.437,540.539,538.941,0.0
50158.0,STARLINK-3309,PAYLOAD,2023-08-30 20:03:51,15.08837867,0.000133,53.2169,77.4938,96.5316,263.5828,5.2533e-05,5.48e-06,0.0,0 STARLINK-3309,1 50158U 21125C   23242.83600748  .00000548  00000-0  52533-4 0  9998,2 50158  53.2169  77.4938 0001330  96.5316 263.5828 15.08837867 97353,6917.887,95.438,540.672,538.832,0.0
50158.0,STARLINK-3309,PAYLOAD,2023-08-31 15:08:29,15.08834162,0.00014,53.2163,73.9264,94.0183,266.0969,6.2446e-05,7.06e-06,0.0,0 STARLINK-3309,1 50158U 21125C   23243.63089133  .00000706  00000-0  62446-4 0  9996,2 50158  53.2163  73.9264 0001400  94.0183 266.0969 15.08834162 97475,6917.898,95.438,540.732,538.795,0.0
50158.0,STARLINK-3309,PAYLOAD,2023-09-01 05:26:57,15.08837354,0.0001495,53.2155,71.2509,95.2119,264.9044,8.3167e-05,1.036e-05,0.0,0 STARLINK-3309,1 50158U 21125C   23244.22705121  .00001036  00000-0  83167-4 0  9994,2 50158  53.2155  71.2509 0001495  95.2119 264.9044 15.08837354 94413,6917.888,95.438,540.788,538.719,0.0
50158.0,STARLINK-3309,PAYLOAD,2023-09-01 21:20:48,15.08840142,0.0001859,53.2148,68.2772,83.768,276.3524,7.8869e-05,9.67e-06,0.0,0 STARLINK-3309,1 50158U 21125C   23244.88945304  .00000967  00000-0  78869-4 0  9990,2 50158  53.2148  68.2772 0001859  83.7680 276.3524 15.08840142 97661,6917.88,95.438,541.031,538.459,0.0
50158.0,STARLINK-3309,PAYLOAD,2023-09-02 06:53:08,15.08798762,0.0002255,53.2141,66.4925,84.905,275.2199,0.00075739,0.00011773,0.0,0 STARLINK-3309,1 50158U 21125C   23245.28690902  .00011773  00000-0  75739-3 0  9995,2 50158  53.2141  66.4925 0002255  84.9050 275.2199 15.08798762 94572,6918.006,95.44,541.431,538.311,0.0
50158.0,STARLINK-3309,PAYLOAD,2023-09-02 11:39:16,15.08841759,0.000225,53.2143,65.6001,83.4405,276.6843,9.3496e-05,1.2e-05,0.0,0 STARLINK-3309,1 50158U 21125C   23245.48561284  .00001200  00000-0  93496-4 0  9992,2 50158  53.2143  65.6001 0002250  83.4405 276.6843 15.08841759 97752,6917.875,95.437,541.297,538.183,0.0
50158.0,STARLINK-3309,PAYLOAD,2023-09-02 16:25:26,15.08831546,0.0001083,53.2175,64.7079,94.5716,265.5399,0.00016464,2.333e-05,0.0,0 STARLINK-3309,1 50158U 21125C   23245.68433557  .00002333  00000-0  16464-3 0  9992,2 50158  53.2175  64.7079 0001083  94.5716 265.5399 15.08831546 94633,6917.906,95.438,540.52,539.022,0.0
50158.0,STARLINK-3309,PAYLOAD,2023-09-02 19:36:12,15.08844587,0.000125,53.2173,64.1131,84.7632,275.3502,0.00010374,1.364e-05,0.0,0 STARLINK-3309,1 50158U 21125C   23245.81680937  .00001364  00000-0  10374-3 0  9990,2 50158  53.2173  64.1131 0001250  84.7632 275.3502 15.08844587 97804,6917.866,95.437,540.596,538.867,0.0
50158.0,STARLINK-3309,PAYLOAD,2023-09-03 05:08:31,15.08831477,0.0001175,53.2174,62.3286,90.9455,269.1672,0.00030029,4.493e-05,0.0,0 STARLINK-3309,1 50158U 21125C   23246.21425014  .00004493  00000-0  30029-3 0  9993,2 50158  53.2174  62.3286 0001175  90.9455 269.1672 15.08831477 94714,6917.906,95.438,540.584,538.959,0.0
50158.0,STARLINK-3309,PAYLOAD,2023-09-03 11:30:03,15.08832046,0.0001256,53.2173,61.1391,90.308,269.8056,0.00026019,3.855e-05,0.0,0 STARLINK-3309,1 50158U 21125C   23246.47921278  .00003855  00000-0  26019-3 0  9999,2 50158  53.2173  61.1391 0001256  90.3080 269.8056 15.08832046 97905,6917.905,95.438,540.639,538.901,0.0
50158.0,STARLINK-3309,PAYLOAD,2023-09-03 22:37:45,15.08852264,0.000134,53.2179,59.0562,86.5058,273.6088,0.00012618,1.721e-05,0.0,0 STARLINK-3309,1 50158U 21125C   23246.94288216  .00001721  00000-0  12618-3 0  9999,2 50158  53.2179  59.0562 0001340  86.5058 273.6088 15.08852264 94823,6917.843,95.437,540.635,538.781,0.0
50158.0,STARLINK-3309,PAYLOAD,2023-09-04 04:59:18,15.08836917,0.0001636,53.2177,57.8684,80.1993,279.9184,5.5199e-05,5.9e-06,0.0,0 STARLINK-3309,1 50158U 21125C   23247.20785504  .00000590  00000-0  55199-4 0  9996,2 50158  53.2177  57.8684 0001636  80.1993 279.9184 15.08836917 94865,6917.89,95.438,540.887,538.623,0.0
50158.0,STARLINK-3309,PAYLOAD,2023-09-04 11:20:51,15.08836609,0.0001688,53.2177,56.6794,78.6629,281.4553,3.8273e-05,3.21e-06,0.0,0 STARLINK-3309,1 50158U 21125C   23247.47281611  .00000321  00000-0  38273-4 0  9991,2 50158  53.2177  56.6794 0001688  78.6629 281.4553 15.08836609 98050,6917.891,95.438,540.923,538.588,0.0
50158.0,STARLINK-3309,PAYLOAD,2023-09-05 11:11:38,15.08839539,0.0001256,53.2177,52.2181,92.3309,267.7827,4.2035e-05,3.81e-06,0.0,0 STARLINK-3309,1 50158U 21125C   23248.46641400  .00000381  00000-0  42035-4 0  9994,2 50158  53.2177  52.2181 0001256  92.3309 267.7827 15.08839539 95054,6917.882,95.438,540.616,538.878,0.0
50158.0,STARLINK-3309,PAYLOAD,2023-09-06 11:02:25,15.08839789,0.0001275,53.2178,47.7571,96.7488,263.3649,0.00013511,1.863e-05,0.0,0 STARLINK-3309,1 50158U 21125C   23249.46001191  .00001863  00000-0  13511-3 0  9994,2 50158  53.2178  47.7571 0001275  96.7488 263.3649 15.08839789 98351,6917.881,95.438,540.628,538.864,0.0
50158.0,STARLINK-3309,PAYLOAD,2023-09-06 17:23:57,15.08842129,0.000125,53.2178,46.5681,94.0403,266.0732,0.00016478,2.336e-05,0.0,0 STARLINK-3309,1 50158U 21125C   23249.72497057  .00002336  00000-0  16478-3 0  9994,2 50158  53.2178  46.5681 0001250  94.0403 266.0732 15.08842129 95241,6917.874,95.437,540.604,538.874,0.0
50158.0,STARLINK-3309,PAYLOAD,2023-09-07 10:53:12,15.08826209,0.0001255,53.2181,43.2967,93.3054,266.8081,0.00011417,1.529e-05,0.0,0 STARLINK-3309,1 50158U 21125C   23250.45362246  .00001529  00000-0  11417-3 0  9998,2 50158  53.2181  43.2967 0001255  93.3054 266.8081 15.08826209 95353,6917.923,95.438,540.656,538.919,0.0
50158.0,STARLINK-3309,PAYLOAD,2023-09-07 12:28:36,15.08830867,0.0001328,53.2181,42.9993,92.3224,267.7921,4.0527e-05,3.57e-06,0.0,0 STARLINK-3309,1 50158U 21125C   23250.51986130  .00000357  00000-0  40527-4 0  9992,2 50158  53.2181  42.9993 0001328  92.3224 267.7921 15.08830867 98516,6917.908,95.438,540.692,538.855,0.0
